[{"OBJECT_NAME":"WEILAI 1R","OBJECT_ID":"2019-093F","EPOCH":"2026-03-09T22:33:48.244608","MEAN_MOTION":14.997592,"ECCENTRICITY":0.00116762,"INCLINATION":97.7939,"RA_OF_ASC_NODE":158.7373,"ARG_OF_PERICENTER":23.5076,"MEAN_ANOMALY":336.6679,"EPHEMERIS_TYPE":0,"CLASSIFICATION_TYPE":"U","NORAD_CAT_ID":44884,"ELEMENT_SET_NO":999,"REV_AT_EPOCH":33754,"BSTAR":0.00050142794,"MEAN_MOTION_DOT":6.146e-5,"MEAN_MOTION_DDOT":0},{"OBJECT_NAME":"STARLINK-5835","OBJECT_ID":"2023-028AH","EPOCH":"2026-03-09T22:00:01.999584","MEAN_MOTION":14.98332313,"ECCENTRICITY":0.00030417,"INCLINATION":70.001,"RA_OF_ASC_NODE":223.763,"ARG_OF_PERICENTER":274.9702,"MEAN_ANOMALY":315.6363,"EPHEMERIS_TYPE":0,"CLASSIFICATION_TYPE":"U","NORAD_CAT_ID":55772,"ELEMENT_SET_NO":999,"REV_AT_EPOCH":575,"BSTAR":0.0011680208,"MEAN_MOTION_DOT":0.00013872,"MEAN_MOTION_DDOT":0}]
